[{"OBJECT_NAME":"STARLINK-5495","OBJECT_ID":"2023-021H","EPOCH":"2026-03-09T16:57:15.087168","MEAN_MOTION":14.98345366,"ECCENTRICITY":0.00035922,"INCLINATION":70.0007,"RA_OF_ASC_NODE":184.4286,"ARG_OF_PERICENTER":276.1302,"MEAN_ANOMALY":83.9448,"EPHEMERIS_TYPE":0,"CLASSIFICATION_TYPE":"U","NORAD_CAT_ID":55635,"ELEMENT_SET_NO":999,"REV_AT_EPOCH":16879,"BSTAR":1.6539935e-5,"MEAN_MOTION_DOT":1.04e-6,"MEAN_MOTION_DDOT":0},{"OBJECT_NAME":"COSMOS 2582","OBJECT_ID":"2025-026B","EPOCH":"2026-03-09T19:42:31.273920","MEAN_MOTION":14.94730838,"ECCENTRICITY":0.0010584,"INCLINATION":81.9985,"RA_OF_ASC_NODE":175.8563,"ARG_OF_PERICENTER":32.77,"MEAN_ANOMALY":327.4174,"EPHEMERIS_TYPE":0,"CLASSIFICATION_TYPE":"U","NORAD_CAT_ID":62903,"ELEMENT_SET_NO":999,"REV_AT_EPOCH":5936,"BSTAR":0.0001816,"MEAN_MOTION_DOT":1.996e-5,"MEAN_MOTION_DDOT":0}]
